CAS-2T & KS-1Q          
1 41847U 16066G   20228.20927209  .00000021  00000-0  12996-4 0  9992
2 41847  98.6494 279.2989 0366497  53.9671 309.4897 14.38084652197860
NAYIF-1 (EO-88)         
1 42017U 17008BX  20228.47736486  .00001219  00000-0  49220-4 0  9993
2 42017  97.3563 295.1713 0007866 109.2437 250.9653 15.26642069194555
MAX VALIER SAT          
1 42778U 17036P   20228.22436669  .00000735  00000-0  34396-4 0  9991
2 42778  97.3005 280.2224 0012551 167.5872 192.5676 15.22708478174679
RADFXSAT (FOX-1B)       
1 43017U 17073E   20228.31747257  .00000195  00000-0  20996-4 0  9998
2 43017  97.7187 138.2800 0255813 218.3223 139.9570 14.78991289147861
FOX-1D (AO-92)          
1 43137U 18004AC  20228.43919255  .00000792  00000-0  35397-4 0  9992
2 43137  97.4425 299.1938 0008525 198.4148 161.6782 15.24219296144031
DIWATA-2B               
1 43678U 18084H   20228.84149046  .00000444  00000-0  49892-4 0  9997
2 43678  97.8907 347.2644 0009587 349.3986  10.7023 14.91648139 97871
ES'HAIL 2               
1 43700U 18090A   20228.33521826  .00000143  00000-0  00000+0 0  9993
2 43700   0.0167 114.7948 0001718  64.5589 291.3205  1.00269904  6546
FOX-1CLIFF (AO-95)      
1 43770U 18099N   20228.74239772  .00000564  00000-0  56698-4 0  9996
2 43770  97.7026 299.0804 0014490   5.6723 354.4659 14.95021972 92778
ITASAT 1                
1 43786U 18099AE  20228.72596728  .00000031  00000-0  79815-5 0  9994
2 43786  97.7039 299.5262 0014992 358.4296   1.6875 14.95354768 92798
JY1SAT (JO-97)          
1 43803U 18099AX  20228.66647507  .00000338  00000-0  35668-4 0  9996
2 43803  97.7000 299.2727 0014876 359.1798   0.9396 14.95537985 92788
PSAT2 (NO-104)          
1 44354U 19036R   20228.51889778  .00011171  00000-0  16054-3 0  9996
2 44354  28.5333 352.4581 0359910 222.2142 135.0203 15.04550443 62728
BRICSAT2 (NO-103)       
1 44355U 19036S   20228.56543983  .00018130  00000-0  24753-3 0  9994
2 44355  28.5335 340.1237 0334830 242.2726 114.3523 15.10907944 62855
JAISAT-1                
1 44419U 19038F   20228.42300818  .00000657  00000-0  41007-4 0  9997
2 44419  97.5429 189.3453 0019985 289.3483  70.5587 15.12864443 61515
DUCHIFAT-3              
1 44854U 19089C   20228.77503044  .00000295  00000-0  30214-4 0  9996
2 44854  36.9645 107.7631 0008040 193.2565 166.7959 14.99102821 37200
RS-44 & BREEZE-KM R/B   
1 44909U 19096E   20228.38697428  .00000012  00000-0 -52403-5 0  9995
2 44909  82.5237 316.1577 0218490  88.7849 273.8272 12.79707670 29720
ORBITAL FACTORY 2 (OF-2)
1 45113U 19071C   20228.59370624  .00001460  00000-0  55826-4 0  9993
2 45113  51.6444  77.8212 0012286 270.7714  89.1860 15.33531784 30201
HUSKYSAT-1              
1 45119U 19071J   20228.75947089  .00001001  00000-0  41671-4 0  9996
2 45119  51.6440  76.6785 0011588 267.5281  92.4375 15.33735518 30223
